{"type": "FeatureCollection", "features": [ {"type": "Feature", "properties": {"norad_id": 66580, "name": "STARLINK-35872", "group": "last-30-days", "lat": -36.85410419764372, "lon": -40.87711004870724, "alt_km": 418.00827198723255, "timestamp": "2025-12-18T19:29:51.285769+00:00", "meta": {"OBJECT_NAME": "STARLINK-35872", "OBJECT_ID": "2025-268Z", "EPOCH": "2025-12-18T07:38:22.511904", "MEAN_MOTION": 15.50635749, "ECCENTRICITY": 4.474e-05, "INCLINATION": 43.0009, "RA_OF_ASC_NODE": 88.465, "ARG_OF_PERICENTER": 28.7877, "MEAN_ANOMALY": 331.3008, "EPHEMERIS_TYPE": 0, "CLASSIFICATION_TYPE": "U", "NORAD_CAT_ID": 66580, "ELEMENT_SET_NO": 999, "REV_AT_EPOCH": 549, "BSTAR": 0.0012493236, "MEAN_MOTION_DOT": 0.00073793, "MEAN_MOTION_DDOT": 0}, "tle": {"line1": "1 66580U 25268Z   25352.31831611  .00073793  00000+0  12493-2 0  9998", "line2": "2 66580  43.0009  88.4650 0000447  28.7877 331.3008 15.50635749  5499"}}, "geometry": {"type": "Point", "coordinates": [-40.87711004870724, -36.85410419764372]}}, {"type": "Feature", "properties": {"norad_id": 66581, "name": "STARLINK-35744", "group": "last-30-days", "lat": -37.61342841096824, "lon": -38.660568405109494, "alt_km": 416.45383396532816, "timestamp": "2025-12-18T19:29:51.285779+00:00", "meta": {"OBJECT_NAME": "STARLINK-35744", "OBJECT_ID": "2025-268AA", "EPOCH": "2025-12-17T23:54:05.291712", "MEAN_MOTION": 15.50595637, "ECCENTRICITY": 0.00023336, "INCLINATION": 43.0009, "RA_OF_ASC_NODE": 90.3454, "ARG_OF_PERICENTER": 267.014, "MEAN_ANOMALY": 93.0453, "EPHEMERIS_TYPE": 0, "CLASSIFICATION_TYPE": "U", "NORAD_CAT_ID": 66581, "ELEMENT_SET_NO": 999, "REV_AT_EPOCH": 544, "BSTAR": 0.0010157635, "MEAN_MOTION_DOT": 0.00059743, "MEAN_MOTION_DDOT": 0}, "tle": {"line1": "1 66581U 25268AA  25351.99589458  .00059743  00000+0  10158-2 0  9996", "line2": "2 66581  43.0009  90.3454 0002333 267.0140  93.0453 15.50595637  5443"}}, "geometry": {"type": "Point", "coordinates": [-38.660568405109494, -37.61342841096824]}}, {"type": "Feature", "properties": {"norad_id": 66582, "name": "STARLINK-35746", "group": "last-30-days", "lat": -38.32618836088864, "lon": -36.40340972299537, "alt_km": 418.21970203483943, "timestamp": "2025-12-18T19:29:51.285792+00:00", "meta": {"OBJECT_NAME": "STARLINK-35746", "OBJECT_ID": "2025-268AB", "EPOCH": "2025-12-18T07:37:23.154240", "MEAN_MOTION": 15.50640666, "ECCENTRICITY": 6.327e-05, "INCLINATION": 42.9985, "RA_OF_ASC_NODE": 88.4588, "ARG_OF_PERICENTER": 47.6337, "MEAN_ANOMALY": 312.4577, "EPHEMERIS_TYPE": 0, "CLASSIFICATION_TYPE": "U", "NORAD_CAT_ID": 66582, "ELEMENT_SET_NO": 999, "REV_AT_EPOCH": 549, "BSTAR": 0.001215039, "MEAN_MOTION_DOT": 0.00071752, "MEAN_MOTION_DDOT": 0}, "tle": {"line1": "1 66582U 25268AB  25352.31762910  .00071752  00000+0  12150-2 0  9998", "line2": "2 66582  42.9985  88.4588 0000632  47.6337 312.4577 15.50640666  5494"}}, "geometry": {"type": "Point", "coordinates": [-36.40340972299537, -38.32618836088864]}}, {"type": "Feature", "properties": {"norad_id": 66583, "name": "STARLINK-35941", "group": "last-30-days", "lat": -38.99532206139517, "lon": -34.10761126559532, "alt_km": 418.2952460558381, "timestamp": "2025-12-18T19:29:51.285804+00:00", "meta": {"OBJECT_NAME": "STARLINK-35941", "OBJECT_ID": "2025-268AC", "EPOCH": "2025-12-18T07:36:53.504352", "MEAN_MOTION": 15.50641573, "ECCENTRICITY": 6.686e-05, "INCLINATION": 42.9979, "RA_OF_ASC_NODE": 88.4554, "ARG_OF_PERICENTER": 67.7089, "MEAN_ANOMALY": 292.3842, "EPHEMERIS_TYPE": 0, "CLASSIFICATION_TYPE": "U", "NORAD_CAT_ID": 66583, "ELEMENT_SET_NO": 999, "REV_AT_EPOCH": 549, "BSTAR": 0.0011468369, "MEAN_MOTION_DOT": 0.00067672, "MEAN_MOTION_DDOT": 0}, "tle": {"line1": "1 66583U 25268AC  25352.31728593  .00067672  00000+0  11468-2 0  9995", "line2": "2 66583  42.9979  88.4554 0000668  67.7089 292.3842 15.50641573  5496"}}, "geometry": {"type": "Point", "coordinates": [-34.10761126559532, -38.99532206139517]}}, {"type": "Feature", "properties": {"norad_id": 66584, "name": "STARLINK-35939", "group": "last-30-days", "lat": -39.622507471110865, "lon": -31.74341298592412, "alt_km": 417.72109976131924, "timestamp": "2025-12-18T19:29:51.285814+00:00", "meta": {"OBJECT_NAME": "STARLINK-35939", "OBJECT_ID": "2025-268AD", "EPOCH": "2025-12-18T07:36:23.720544", "MEAN_MOTION": 15.50638957, "ECCENTRICITY": 0.00019372, "INCLINATION": 42.9936, "RA_OF_ASC_NODE": 88.4476, "ARG_OF_PERICENTER": 162.9241, "MEAN_ANOMALY": 197.1685, "EPHEMERIS_TYPE": 0, "CLASSIFICATION_TYPE": "U", "NORAD_CAT_ID": 66584, "ELEMENT_SET_NO": 999, "REV_AT_EPOCH": 549, "BSTAR": 0.001153067, "MEAN_MOTION_DOT": 0.00068041, "MEAN_MOTION_DDOT": 0}, "tle": {"line1": "1 66584U 25268AD  25352.31694121  .00068041  00000+0  11531-2 0  9997", "line2": "2 66584  42.9936  88.4476 0001937 162.9241 197.1685 15.50638957  5490"}}, "geometry": {"type": "Point", "coordinates": [-31.74341298592412, -39.622507471110865]}}, {"type": "Feature", "properties": {"norad_id": 66585, "name": "STARLINK-35963", "group": "last-30-days", "lat": -40.19670000606462, "lon": -29.36689630484002, "alt_km": 417.7264179049753, "timestamp": "2025-12-18T19:29:51.285824+00:00", "meta": {"OBJECT_NAME": "STARLINK-35963", "OBJECT_ID": "2025-268AE", "EPOCH": "2025-12-18T07:35:54.039552", "MEAN_MOTION": 15.50640131, "ECCENTRICITY": 0.00016907, "INCLINATION": 42.9937, "RA_OF_ASC_NODE": 88.4454, "ARG_OF_PERICENTER": 166.7259, "MEAN_ANOMALY": 193.3646, "EPHEMERIS_TYPE": 0, "CLASSIFICATION_TYPE": "U", "NORAD_CAT_ID": 66585, "ELEMENT_SET_NO": 999, "REV_AT_EPOCH": 549, "BSTAR": 0.001151766, "MEAN_MOTION_DOT": 0.00067965, "MEAN_MOTION_DDOT": 0}, "tle": {"line1": "1 66585U 25268AE  25352.31659768  .00067965  00000+0  11518-2 0  9995", "line2": "2 66585  42.9937  88.4454 0001690 166.7259 193.3646 15.50640131  5497"}}, "geometry": {"type": "Point", "coordinates": [-29.36689630484002, -40.19670000606462]}}, {"type": "Feature", "properties": {"norad_id": 66586, "name": "TJS-21", "group": "last-30-days", "lat": 53.893729831095335, "lon": -154.5869414540777, "alt_km": 30847.579486660292, "timestamp": "2025-12-18T19:29:51.285837+00:00", "meta": {"OBJECT_NAME": "TJS-21", "OBJECT_ID": "2025-269A", "EPOCH": "2025-12-15T05:12:47.484864", "MEAN_MOTION": 2.00575027, "ECCENTRICITY": 0.68062948, "INCLINATION": 63.2717, "RA_OF_ASC_NODE": 162.0883, "ARG_OF_PERICENTER": 269.7594, "MEAN_ANOMALY": 18.6638, "EPHEMERIS_TYPE": 0, "CLASSIFICATION_TYPE": "U", "NORAD_CAT_ID": 66586, "ELEMENT_SET_NO": 999, "REV_AT_EPOCH": 48, "BSTAR": -0.049388688, "MEAN_MOTION_DOT": 1.099e-05, "MEAN_MOTION_DDOT": 0}, "tle": {"line1": "1 66586U 25269A   25349.21721626  .00001099  00000+0 -49389-1 0  9998", "line2": "2 66586  63.2717 162.0883 6806294 269.7594  18.6638  2.00575027   486"}}, "geometry": {"type": "Point", "coordinates": [-154.5869414540777, 53.893729831095335]}}, {"type": "Feature", "properties": {"norad_id": 66587, "name": "CZ-3B R/B", "group": "last-30-days", "lat": 30.736177842849358, "lon": -163.37002227399907, "alt_km": 37967.788352883035, "timestamp": "2025-12-18T19:29:51.285853+00:00", "meta": {"OBJECT_NAME": "CZ-3B R/B", "OBJECT_ID": "2025-269B", "EPOCH": "2025-12-17T04:50:14.865216", "MEAN_MOTION": 2.03937792, "ECCENTRICITY": 0.75168551, "INCLINATION": 51.3435, "RA_OF_ASC_NODE": 168.6023, "ARG_OF_PERICENTER": 229.5038, "MEAN_ANOMALY": 36.3416, "EPHEMERIS_TYPE": 0, "CLASSIFICATION_TYPE": "U", "NORAD_CAT_ID": 66587, "ELEMENT_SET_NO": 999, "REV_AT_EPOCH": 54, "BSTAR": 0.00055683527, "MEAN_MOTION_DOT": 0.00072738, "MEAN_MOTION_DDOT": -9.18653e-07}, "tle": {"line1": "1 66587U 25269B   25351.20156094  .00072738 -91865-6  55684-3 0  9993", "line2": "2 66587  51.3435 168.6023 7516855 229.5038  36.3416  2.03937792   541"}}, "geometry": {"type": "Point", "coordinates": [-163.37002227399907, 30.736177842849358]}}, {"type": "Feature", "properties": {"norad_id": 66588, "name": "STARLINK-36076", "group": "last-30-days", "lat": -41.05519921108172, "lon": 46.96627693521136, "alt_km": 445.77723957833496, "timestamp": "2025-12-18T19:29:51.285866+00:00", "meta": {"OBJECT_NAME": "STARLINK-36076", "OBJECT_ID": "2025-270A", "EPOCH": "2025-12-18T04:23:44.647296", "MEAN_MOTION": 15.40722227, "ECCENTRICITY": 0.00019823, "INCLINATION": 42.9989, "RA_OF_ASC_NODE": 161.4122, "ARG_OF_PERICENTER": 254.1904, "MEAN_ANOMALY": 105.8735, "EPHEMERIS_TYPE": 0, "CLASSIFICATION_TYPE": "U", "NORAD_CAT_ID": 66588, "ELEMENT_SET_NO": 999, "REV_AT_EPOCH": 518, "BSTAR": 0.00096199397, "MEAN_MOTION_DOT": 0.00040123, "MEAN_MOTION_DDOT": 0}, "tle": {"line1": "1 66588U 25270A   25352.18315564  .00040123  00000+0  96199-3 0  9995", "line2": "2 66588  42.9989 161.4122 0001982 254.1904 105.8735 15.40722227  5183"}}, "geometry": {"type": "Point", "coordinates": [46.96627693521136, -41.05519921108172]}}, {"type": "Feature", "properties": {"norad_id": 66589, "name": "STARLINK-35447", "group": "last-30-days", "lat": -4.291070913007066, "lon": 152.92417747019397, "alt_km": 443.86110753133835, "timestamp": "2025-12-18T19:29:51.285877+00:00", "meta": {"OBJECT_NAME": "STARLINK-35447", "OBJECT_ID": "2025-270B", "EPOCH": "2025-12-18T06:00:02.999808", "MEAN_MOTION": 15.40691721, "ECCENTRICITY": 0.00015225, "INCLINATION": 42.9993, "RA_OF_ASC_NODE": 160.7843, "ARG_OF_PERICENTER": 285.9899, "MEAN_ANOMALY": 184.9004, "EPHEMERIS_TYPE": 0, "CLASSIFICATION_TYPE": "U", "NORAD_CAT_ID": 66589, "ELEMENT_SET_NO": 999, "REV_AT_EPOCH": 539, "BSTAR": 0.00048669877, "MEAN_MOTION_DOT": 0.00020075, "MEAN_MOTION_DDOT": 0}, "tle": {"line1": "1 66589U 25270B   25352.25003472  .00020075  00000+0  48670-3 0  9991", "line2": "2 66589  42.9993 160.7843 0001522 285.9899 184.9004 15.40691721  5390"}}, "geometry": {"type": "Point", "coordinates": [152.92417747019397, -4.291070913007066]}}]}